IRIDIUM 144             
1 43249U 18030A   25265.45902022  .00000125  00000+0  37444-4 0  9991
2 43249  86.3969  42.3050 0002151  91.2849 268.8594 14.34218297391760
IRIDIUM 149             
1 43250U 18030B   25265.46536005  .00000424  00000+0  14421-3 0  9999
2 43250  86.3968  42.2722 0002178  89.5327 270.6118 14.34218320391788
IRIDIUM 157             
1 43251U 18030C   25265.62392655  .00000060  00000+0  14232-4 0  9996
2 43251  86.3967  42.2540 0001785  94.7892 265.3508 14.34218116391781
IRIDIUM 140             
1 43252U 18030D   25265.43365017  .00000188  00000+0  60033-4 0  9999
2 43252  86.3970  42.3462 0002276  90.8350 269.3107 14.34218661391810
IRIDIUM 145             
1 43253U 18030E   25265.63026809  .00000409  00000+0  13910-3 0  9992
2 43253  86.3970  42.2368 0002293  82.9392 277.2065 14.34220590391772
IRIDIUM 146             
1 43254U 18030F   25265.47170566  .00000240  00000+0  78769-4 0  9992
2 43254  86.3970  42.3163 0002287  85.8494 274.2964 14.34218941391766
IRIDIUM 148             
1 43255U 18030G   25265.43999225  .00000110  00000+0  32283-4 0  9997
2 43255  86.3971  42.3685 0001985  89.8760 270.2663 14.34218058391795
IRIDIUM 142             
1 43256U 18030H   25265.61758575  .00000046  00000+0  95389-5 0  9994
2 43256  86.3968  42.1929 0002334  81.5756 278.5704 14.34217914391780
